{"epoch":1784710044,"count":18256,"objects":[{"id":"43072","name":"IRIDIUM 116","type":"PAYLOAD","l1":"1 43072U 17083C   26202.33179716  .00000170  00000-0  53736-4 0  9990","l2":"2 43072  86.3985 307.7291 0002507  97.0588 263.0893 14.34217525449065"},{"id":"43073","name":"IRIDIUM 130","type":"PAYLOAD","l1":"1 43073U 17083D   26202.57915702  .00000365  00000-0  12336-3 0  9996","l2":"2 43073  86.3996 307.9045 0002355 100.3430 259.8032 14.34219347449042"},{"id":"43074","name":"IRIDIUM 151","type":"PAYLOAD","l1":"1 43074U 17083E   26202.55378698  .00000076  00000-0  20191-4 0  9990","l2":"2 43074  86.3988 307.6948 0002279  95.0455 265.1001 14.34217963449065"},{"id":"43075","name":"IRIDIUM 134","type":"PAYLOAD","l1":"1 43075U 17083F   26202.31276816  .00000005  00000-0 -52875-5 0  9992","l2":"2 43075  86.3987 307.8043 0002144  96.4524 263.6916 14.34217617448991"},{"id":"43076","name":"IRIDIUM 137","type":"PAYLOAD","l1":"1 43076U 17083G   26202.53476009 -.00000004  00000-0 -86148-5 0  9993","l2":"2 43076  86.3989 307.8049 0002529  90.2403 269.9083 14.34217507449099"},{"id":"43077","name":"IRIDIUM 141","type":"PAYLOAD","l1":"1 43077U 17083H   26202.31911127  .00000184  00000-0  58552-4 0  9999","l2":"2 43077  86.3985 307.7236 0002159  94.2560 265.8883 14.34218003449062"},{"id":"43078","name":"IRIDIUM 153","type":"PAYLOAD","l1":"1 43078U 17083J   26202.27128928  .00000005  00000-0 -51483-5 0  9994","l2":"2 43078  86.3954 276.2213 0002022  95.8396 264.3030 14.34217518450168"},{"id":"43079","name":"IRIDIUM 131","type":"PAYLOAD","l1":"1 43079U 17083K   26202.58549982  .00000011  00000-0 -30128-5 0  9996","l2":"2 43079  86.3989 307.8005 0002075  93.1504 266.9929 14.34217612449031"},{"id":"43249","name":"IRIDIUM 144","type":"PAYLOAD","l1":"1 43249U 18030A   26202.48693779  .00000115  00000-0  33990-4 0  9994","l2":"2 43249  86.3952 276.0598 0002394  96.0188 264.1281 14.34217800435055"},{"id":"43250","name":"IRIDIUM 149","type":"PAYLOAD","l1":"1 43250U 18030B   26202.28397488 -.00000009  00000-0 -10412-4 0  9990","l2":"2 43250  86.3951 276.1110 0002113  93.9518 266.1920 14.34217407435043"},{"id":"43251","name":"IRIDIUM 157","type":"PAYLOAD","l1":"1 43251U 18030C   26202.23323430  .00000063  00000-0  15438-4 0  9993","l2":"2 43251  86.3950 276.1863 0002244  94.6975 265.4477 14.34217893435013"},{"id":"43252","name":"IRIDIUM 140","type":"PAYLOAD","l1":"1 43252U 18030D   26202.25226219  .00000164  00000-0  51382-4 0  9993","l2":"2 43252  86.3949 276.1910 0002278  96.4404 263.7051 14.34218120435078"},{"id":"43253","name":"IRIDIUM 145","type":"PAYLOAD","l1":"1 43253U 18030E   26202.23957765  .00000031  00000-0  41575-5 0  9996","l2":"2 43253  86.3950 276.1681 0002575  96.9946 263.1543 14.34217483435006"},{"id":"43254","name":"IRIDIUM 146","type":"PAYLOAD","l1":"1 43254U 18030F   26202.49962397  .00000010  00000-0 -33926-5 0  9991","l2":"2 43254  86.3952 276.0716 0002253  95.4062 264.7391 14.34217284435055"},{"id":"43255","name":"IRIDIUM 148","type":"PAYLOAD","l1":"1 43255U 18030G   26202.46791059  .00000074  00000-0  19406-4 0  9999","l2":"2 43255  86.3951 276.1285 0002293  92.6567 267.4892 14.34218017435084"},{"id":"43256","name":"IRIDIUM 142","type":"PAYLOAD","l1":"1 43256U 18030H   26202.43619793  .00000145  00000-0  44812-4 0  9999","l2":"2 43256  86.3950 276.0297 0002429  95.7511 264.3961 14.34217914435044"}]}