{"fetched_at":"2026-07-22T07:09:18.679Z","source":"https://celestrak.org/NORAD/elements/gp.php?GROUP=iridium-NEXT&FORMAT=JSON","constellation":"iridium","records":[{"OBJECT_NAME":"IRIDIUM 116","OBJECT_ID":"2017-083C","EPOCH":"2026-07-21T07:57:47.274624","CLASSIFICATION_TYPE":"U","MEAN_MOTION":14.34217525,"ECCENTRICITY":0.00025072,"INCLINATION":86.3985,"RA_OF_ASC_NODE":307.7291,"ARG_OF_PERICENTER":97.0588,"MEAN_ANOMALY":263.0893,"EPHEMERIS_TYPE":0,"NORAD_CAT_ID":43072,"ELEMENT_SET_NO":999,"REV_AT_EPOCH":44906,"BSTAR":0.000053736166,"MEAN_MOTION_DOT":0.0000017,"MEAN_MOTION_DDOT":0},{"OBJECT_NAME":"IRIDIUM 130","OBJECT_ID":"2017-083D","EPOCH":"2026-07-21T13:53:59.166528","CLASSIFICATION_TYPE":"U","MEAN_MOTION":14.34219347,"ECCENTRICITY":0.0002355,"INCLINATION":86.3996,"RA_OF_ASC_NODE":307.9045,"ARG_OF_PERICENTER":100.343,"MEAN_ANOMALY":259.8032,"EPHEMERIS_TYPE":0,"NORAD_CAT_ID":43073,"ELEMENT_SET_NO":999,"REV_AT_EPOCH":44904,"BSTAR":0.00012336499,"MEAN_MOTION_DOT":0.00000365,"MEAN_MOTION_DDOT":0},{"OBJECT_NAME":"IRIDIUM 151","OBJECT_ID":"2017-083E","EPOCH":"2026-07-21T13:17:27.195072","CLASSIFICATION_TYPE":"U","MEAN_MOTION":14.34217963,"ECCENTRICITY":0.00022789,"INCLINATION":86.3988,"RA_OF_ASC_NODE":307.6948,"ARG_OF_PERICENTER":95.0455,"MEAN_ANOMALY":265.1001,"EPHEMERIS_TYPE":0,"NORAD_CAT_ID":43074,"ELEMENT_SET_NO":999,"REV_AT_EPOCH":44906,"BSTAR":0.000020191385,"MEAN_MOTION_DOT":7.6e-7,"MEAN_MOTION_DDOT":0},{"OBJECT_NAME":"IRIDIUM 134","OBJECT_ID":"2017-083F","EPOCH":"2026-07-21T07:30:23.169024","CLASSIFICATION_TYPE":"U","MEAN_MOTION":14.34217617,"ECCENTRICITY":0.00021441,"INCLINATION":86.3987,"RA_OF_ASC_NODE":307.8043,"ARG_OF_PERICENTER":96.4524,"MEAN_ANOMALY":263.6916,"EPHEMERIS_TYPE":0,"NORAD_CAT_ID":43075,"ELEMENT_SET_NO":999,"REV_AT_EPOCH":44899,"BSTAR":-0.00000528746,"MEAN_MOTION_DOT":5e-8,"MEAN_MOTION_DDOT":0},{"OBJECT_NAME":"IRIDIUM 137","OBJECT_ID":"2017-083G","EPOCH":"2026-07-21T12:50:03.271776","CLASSIFICATION_TYPE":"U","MEAN_MOTION":14.34217507,"ECCENTRICITY":0.00025288,"INCLINATION":86.3989,"RA_OF_ASC_NODE":307.8049,"ARG_OF_PERICENTER":90.2403,"MEAN_ANOMALY":269.9083,"EPHEMERIS_TYPE":0,"NORAD_CAT_ID":43076,"ELEMENT_SET_NO":999,"REV_AT_EPOCH":44909,"BSTAR":-0.000008614844,"MEAN_MOTION_DOT":-4e-8,"MEAN_MOTION_DDOT":0},{"OBJECT_NAME":"IRIDIUM 141","OBJECT_ID":"2017-083H","EPOCH":"2026-07-21T07:39:31.213728","CLASSIFICATION_TYPE":"U","MEAN_MOTION":14.34218003,"ECCENTRICITY":0.00021587,"INCLINATION":86.3985,"RA_OF_ASC_NODE":307.7236,"ARG_OF_PERICENTER":94.256,"MEAN_ANOMALY":265.8883,"EPHEMERIS_TYPE":0,"NORAD_CAT_ID":43077,"ELEMENT_SET_NO":999,"REV_AT_EPOCH":44906,"BSTAR":0.000058551895,"MEAN_MOTION_DOT":0.00000184,"MEAN_MOTION_DDOT":0},{"OBJECT_NAME":"IRIDIUM 153","OBJECT_ID":"2017-083J","EPOCH":"2026-07-21T06:30:39.393792","CLASSIFICATION_TYPE":"U","MEAN_MOTION":14.34217518,"ECCENTRICITY":0.00020221,"INCLINATION":86.3954,"RA_OF_ASC_NODE":276.2213,"ARG_OF_PERICENTER":95.8396,"MEAN_ANOMALY":264.303,"EPHEMERIS_TYPE":0,"NORAD_CAT_ID":43078,"ELEMENT_SET_NO":999,"REV_AT_EPOCH":45016,"BSTAR":-0.000005148277,"MEAN_MOTION_DOT":5e-8,"MEAN_MOTION_DDOT":0},{"OBJECT_NAME":"IRIDIUM 131","OBJECT_ID":"2017-083K","EPOCH":"2026-07-21T14:03:07.184448","CLASSIFICATION_TYPE":"U","MEAN_MOTION":14.34217612,"ECCENTRICITY":0.00020755,"INCLINATION":86.3989,"RA_OF_ASC_NODE":307.8005,"ARG_OF_PERICENTER":93.1504,"MEAN_ANOMALY":266.9929,"EPHEMERIS_TYPE":0,"NORAD_CAT_ID":43079,"ELEMENT_SET_NO":999,"REV_AT_EPOCH":44903,"BSTAR":-0.000003012793,"MEAN_MOTION_DOT":1.1e-7,"MEAN_MOTION_DDOT":0},{"OBJECT_NAME":"IRIDIUM 144","OBJECT_ID":"2018-030A","EPOCH":"2026-07-21T11:41:11.425056","CLASSIFICATION_TYPE":"U","MEAN_MOTION":14.342178,"ECCENTRICITY":0.0002394,"INCLINATION":86.3952,"RA_OF_ASC_NODE":276.0598,"ARG_OF_PERICENTER":96.0188,"MEAN_ANOMALY":264.1281,"EPHEMERIS_TYPE":0,"NORAD_CAT_ID":43249,"ELEMENT_SET_NO":999,"REV_AT_EPOCH":43505,"BSTAR":0.000033990078,"MEAN_MOTION_DOT":0.00000115,"MEAN_MOTION_DDOT":0},{"OBJECT_NAME":"IRIDIUM 149","OBJECT_ID":"2018-030B","EPOCH":"2026-07-21T06:48:55.429632","CLASSIFICATION_TYPE":"U","MEAN_MOTION":14.34217407,"ECCENTRICITY":0.00021133,"INCLINATION":86.3951,"RA_OF_ASC_NODE":276.111,"ARG_OF_PERICENTER":93.9518,"MEAN_ANOMALY":266.192,"EPHEMERIS_TYPE":0,"NORAD_CAT_ID":43250,"ELEMENT_SET_NO":999,"REV_AT_EPOCH":43504,"BSTAR":-0.000010412196,"MEAN_MOTION_DOT":-9e-8,"MEAN_MOTION_DDOT":0},{"OBJECT_NAME":"IRIDIUM 157","OBJECT_ID":"2018-030C","EPOCH":"2026-07-21T05:35:51.443520","CLASSIFICATION_TYPE":"U","MEAN_MOTION":14.34217893,"ECCENTRICITY":0.00022442,"INCLINATION":86.395,"RA_OF_ASC_NODE":276.1863,"ARG_OF_PERICENTER":94.6975,"MEAN_ANOMALY":265.4477,"EPHEMERIS_TYPE":0,"NORAD_CAT_ID":43251,"ELEMENT_SET_NO":999,"REV_AT_EPOCH":43501,"BSTAR":0.00001543834,"MEAN_MOTION_DOT":6.3e-7,"MEAN_MOTION_DDOT":0},{"OBJECT_NAME":"IRIDIUM 140","OBJECT_ID":"2018-030D","EPOCH":"2026-07-21T06:03:15.453216","CLASSIFICATION_TYPE":"U","MEAN_MOTION":14.3421812,"ECCENTRICITY":0.00022776,"INCLINATION":86.3949,"RA_OF_ASC_NODE":276.191,"ARG_OF_PERICENTER":96.4404,"MEAN_ANOMALY":263.7051,"EPHEMERIS_TYPE":0,"NORAD_CAT_ID":43252,"ELEMENT_SET_NO":999,"REV_AT_EPOCH":43507,"BSTAR":0.000051381859,"MEAN_MOTION_DOT":0.00000164,"MEAN_MOTION_DDOT":0},{"OBJECT_NAME":"IRIDIUM 145","OBJECT_ID":"2018-030E","EPOCH":"2026-07-21T05:44:59.508960","CLASSIFICATION_TYPE":"U","MEAN_MOTION":14.34217483,"ECCENTRICITY":0.00025755,"INCLINATION":86.395,"RA_OF_ASC_NODE":276.1681,"ARG_OF_PERICENTER":96.9946,"MEAN_ANOMALY":263.1543,"EPHEMERIS_TYPE":0,"NORAD_CAT_ID":43253,"ELEMENT_SET_NO":999,"REV_AT_EPOCH":43500,"BSTAR":0.000004157547,"MEAN_MOTION_DOT":3.1e-7,"MEAN_MOTION_DDOT":0},{"OBJECT_NAME":"IRIDIUM 146","OBJECT_ID":"2018-030F","EPOCH":"2026-07-21T11:59:27.511008","CLASSIFICATION_TYPE":"U","MEAN_MOTION":14.34217284,"ECCENTRICITY":0.00022531,"INCLINATION":86.3952,"RA_OF_ASC_NODE":276.0716,"ARG_OF_PERICENTER":95.4062,"MEAN_ANOMALY":264.7391,"EPHEMERIS_TYPE":0,"NORAD_CAT_ID":43254,"ELEMENT_SET_NO":999,"REV_AT_EPOCH":43505,"BSTAR":-0.000003392598,"MEAN_MOTION_DOT":1e-7,"MEAN_MOTION_DDOT":0},{"OBJECT_NAME":"IRIDIUM 148","OBJECT_ID":"2018-030G","EPOCH":"2026-07-21T11:13:47.474976","CLASSIFICATION_TYPE":"U","MEAN_MOTION":14.34218017,"ECCENTRICITY":0.00022931,"INCLINATION":86.3951,"RA_OF_ASC_NODE":276.1285,"ARG_OF_PERICENTER":92.6567,"MEAN_ANOMALY":267.4892,"EPHEMERIS_TYPE":0,"NORAD_CAT_ID":43255,"ELEMENT_SET_NO":999,"REV_AT_EPOCH":43508,"BSTAR":0.000019405662,"MEAN_MOTION_DOT":7.4e-7,"MEAN_MOTION_DDOT":0},{"OBJECT_NAME":"IRIDIUM 142","OBJECT_ID":"2018-030H","EPOCH":"2026-07-21T10:28:07.501152","CLASSIFICATION_TYPE":"U","MEAN_MOTION":14.34217914,"ECCENTRICITY":0.00024285,"INCLINATION":86.395,"RA_OF_ASC_NODE":276.0297,"ARG_OF_PERICENTER":95.7511,"MEAN_ANOMALY":264.3961,"EPHEMERIS_TYPE":0,"NORAD_CAT_ID":43256,"ELEMENT_SET_NO":999,"REV_AT_EPOCH":43504,"BSTAR":0.000044811876,"MEAN_MOTION_DOT":0.00000145,"MEAN_MOTION_DDOT":0}]}
